[{"OBJECT_NAME":"YAOGAN-36 02B","OBJECT_ID":"2022-133B","EPOCH":"2026-03-09T22:42:31.775904","MEAN_MOTION":15.30199518,"ECCENTRICITY":0.00056841,"INCLINATION":34.9983,"RA_OF_ASC_NODE":22.5268,"ARG_OF_PERICENTER":273.0351,"MEAN_ANOMALY":86.9715,"EPHEMERIS_TYPE":0,"CLASSIFICATION_TYPE":"U","NORAD_CAT_ID":54043,"ELEMENT_SET_NO":999,"REV_AT_EPOCH":18962,"BSTAR":0.00051218814,"MEAN_MOTION_DOT":0.00015352,"MEAN_MOTION_DDOT":0},{"OBJECT_NAME":"STARLINK-31992","OBJECT_ID":"2024-111H","EPOCH":"2026-03-09T05:37:48.124992","MEAN_MOTION":15.3019184,"ECCENTRICITY":9.572e-5,"INCLINATION":53.16,"RA_OF_ASC_NODE":77.7534,"ARG_OF_PERICENTER":85.9323,"MEAN_ANOMALY":274.1787,"EPHEMERIS_TYPE":0,"CLASSIFICATION_TYPE":"U","NORAD_CAT_ID":60023,"ELEMENT_SET_NO":999,"REV_AT_EPOCH":9897,"BSTAR":4.3348426e-5,"MEAN_MOTION_DOT":9.25e-6,"MEAN_MOTION_DDOT":0}]
